{
"type": "FeatureCollection",
"name": "quinta_playa_transects",
"crs": { "type": "name", "properties": { "name": "urn:ogc:def:crs:EPSG::32715" } },
"features": [
{"type":"Feature","properties":{"OBJECTID":1,"transect_id":"cl05204s00tr00232032","lon":-91.0749359,"lat":-1.0055877,"bearing":187.765884,"osm_coastline_is_closed":"F","osm_coastline_length":402265,"utm_epsg":32715,"bbox_xmax":-91.073729459378654,"bbox_xmin":-91.076146629507789,"bbox_ymax":-0.99662772324249305,"bbox_ymin":-1.0145475946045457,"quadkey":"020202112111","continent":"SA","country":"EC","common_country_name":"Ecuador","common_region_name":"Galápagos","st_length_geometry_":null,"Shape_Length":1999.7982201293344,"name":"B6"},"geometry":{"type":"LineString","coordinates":[[714270.738499999977648,9889787.618300000205636],[714167.221300000324845,9887790.5011]]}},
{"type":"Feature","properties":{"OBJECTID":2,"transect_id":"cl05204s00tr00232332","lon":-91.0723495,"lat":-1.00632906,"bearing":199.862335,"osm_coastline_is_closed":"F","osm_coastline_length":402265,"utm_epsg":32715,"bbox_xmax":-91.069305055162033,"bbox_xmin":-91.07539922385682,"bbox_ymax":-0.99782299530530738,"bbox_ymin":-1.0148350869467717,"quadkey":"020202112111","continent":"SA","country":"EC","common_country_name":"Ecuador","common_region_name":"Galápagos","st_length_geometry_":null,"Shape_Length":1998.6424349334818,"name":"C2"},"geometry":{"type":"LineString","coordinates":[[714617.923600000329316,9889698.902300000190735],[714407.466699999757111,9887711.371300000697374]]}},
{"type":"Feature","properties":{"OBJECTID":3,"transect_id":"cl05204s00tr00232232","lon":-91.0731964,"lat":-1.00602233,"bearing":199.862335,"osm_coastline_is_closed":"F","osm_coastline_length":402265,"utm_epsg":32715,"bbox_xmax":-91.070150092759576,"bbox_xmin":-91.076244271020343,"bbox_ymax":-0.99751627764252859,"bbox_ymin":-1.0145283752373795,"quadkey":"020202112111","continent":"SA","country":"EC","common_country_name":"Ecuador","common_region_name":"Galápagos","st_length_geometry_":null,"Shape_Length":1998.5126082627489,"name":"C1"},"geometry":{"type":"LineString","coordinates":[[714410.502899999730289,9889748.895500000566244],[714343.999400000087917,9887751.489700000733137]]}},
{"type":"Feature","properties":{"OBJECTID":4,"transect_id":"cl05204s00tr00231632","lon":-91.0785141,"lat":-1.00558174,"bearing":174.327759,"osm_coastline_is_closed":"F","osm_coastline_length":402265,"utm_epsg":32715,"bbox_xmax":-91.077623012683816,"bbox_xmin":-91.079409260973534,"bbox_ymax":-0.99658433034009042,"bbox_ymin":-1.014579058089836,"quadkey":"020202112111","continent":"SA","country":"EC","common_country_name":"Ecuador","common_region_name":"Galápagos","st_length_geometry_":null,"Shape_Length":2000.0000261392538,"name":"B4"},"geometry":{"type":"LineString","coordinates":[[713721.825500000268221,9889785.056900000199676],[713919.500500000081956,9887794.849700000137091]]}},
{"type":"Feature","properties":{"OBJECTID":5,"transect_id":"cl05204s00tr00231832","lon":-91.0767288,"lat":-1.00545394,"bearing":180.41568,"osm_coastline_is_closed":"F","osm_coastline_length":402265,"utm_epsg":32715,"bbox_xmax":-91.076666152691843,"bbox_xmin":-91.07678591016105,"bbox_ymax":-0.99641196943587829,"bbox_ymin":-1.0144958802792865,"quadkey":"020202112111","continent":"SA","country":"EC","common_country_name":"Ecuador","common_region_name":"Galápagos","st_length_geometry_":null,"Shape_Length":1999.9999349939399,"name":"B5"},"geometry":{"type":"LineString","coordinates":[[714027.202800000086427,9889803.940600000321865],[714012.692900000140071,9887803.993300000205636]]}},
{"type":"Feature","properties":{"OBJECTID":6,"transect_id":"cl05204s00tr00230532","lon":-91.0880966,"lat":-1.00799251,"bearing":162.834137,"osm_coastline_is_closed":"F","osm_coastline_length":402265,"utm_epsg":32715,"bbox_xmax":-91.085436719197119,"bbox_xmin":-91.090749319766246,"bbox_ymax":-0.99935458485492268,"bbox_ymin":-1.0166302979401716,"quadkey":"020202113000","continent":"SA","country":"EC","common_country_name":"Ecuador","common_region_name":"Galápagos","st_length_geometry_":null,"Shape_Length":2002.0567787138689,"name":"A1"},"geometry":{"type":"LineString","coordinates":[[712288.183500000275671,9889408.1009],[713277.73369999974966,9887667.692399999126792]]}},
{"type":"Feature","properties":{"OBJECTID":7,"transect_id":"cl05204s00tr00230632","lon":-91.0872345,"lat":-1.00772512,"bearing":162.834137,"osm_coastline_is_closed":"F","osm_coastline_length":402265,"utm_epsg":32715,"bbox_xmax":-91.084578582351739,"bbox_xmin":-91.089891181666118,"bbox_ymax":-0.99908721122906585,"bbox_ymin":-1.0163629150691353,"quadkey":"020202113000","continent":"SA","country":"EC","common_country_name":"Ecuador","common_region_name":"Galápagos","st_length_geometry_":null,"Shape_Length":1999.5966551454119,"name":"A2"},"geometry":{"type":"LineString","coordinates":[[712670.204699999652803,9889550.626299999654293],[713144.246600000187755,9887608.032400000840425]]}},
{"type":"Feature","properties":{"OBJECTID":9,"transect_id":"cl05204s00tr00230932","lon":-91.0846481,"lat":-1.00697649,"bearing":165.13446,"osm_coastline_is_closed":"F","osm_coastline_length":402265,"utm_epsg":32715,"bbox_xmax":-91.082335053160776,"bbox_xmin":-91.086954498065595,"bbox_ymax":-0.99823825257630661,"bbox_ymin":-1.0157146452988459,"quadkey":"020202113000","continent":"SA","country":"EC","common_country_name":"Ecuador","common_region_name":"Galápagos","st_length_geometry_":null,"Shape_Length":1999.9998539280839,"name":"B1"},"geometry":{"type":"LineString","coordinates":[[712881.776399999856949,9889602.634500000625849],[713394.879300000146031,9887669.5735]]}},
{"type":"Feature","properties":{"OBJECTID":10,"transect_id":"cl05204s00tr00231132","lon":-91.0829086,"lat":-1.00651145,"bearing":165.13446,"osm_coastline_is_closed":"F","osm_coastline_length":402265,"utm_epsg":32715,"bbox_xmax":-91.080598843038729,"bbox_xmin":-91.085218286856701,"bbox_ymax":-0.99777327737294252,"bbox_ymin":-1.0152496511638989,"quadkey":"020202113000","continent":"SA","country":"EC","common_country_name":"Ecuador","common_region_name":"Galápagos","st_length_geometry_":null,"Shape_Length":2000.0000215785328,"name":"B2"},"geometry":{"type":"LineString","coordinates":[[713075.082600000314415,9889653.944900000467896],[713588.185399999842048,9887720.88370000012219]]}},
{"type":"Feature","properties":{"OBJECTID":11,"transect_id":"cl05204s00tr00231432","lon":-91.0802841,"lat":-1.00588882,"bearing":169.694168,"osm_coastline_is_closed":"F","osm_coastline_length":402265,"utm_epsg":32715,"bbox_xmax":-91.078673721443863,"bbox_xmin":-91.081898299258654,"bbox_ymax":-0.99699349788233838,"bbox_ymin":-1.0147841835606699,"quadkey":"020202113000","continent":"SA","country":"EC","common_country_name":"Ecuador","common_region_name":"Galápagos","st_length_geometry_":null,"Shape_Length":2000.0000651446546,"name":"B3"},"geometry":{"type":"LineString","coordinates":[[713444.716699999757111,9889739.967399999499321],[713802.521599999628961,9887772.23369999974966]]}}
]
}
