{"type":"FeatureCollection","crs":{"type":"name","properties":{"name":"EPSG:32715"}},"features":[{"type":"Feature","id":1,"geometry":{"type":"LineString","coordinates":[[712713.28639999963,9888444.3767000008],[712729.7248999998,9888461.4080999997],[712743.74679999985,9888477.4809000008],[712754.8702999996,9888494.7554000001],[712765.26919999998,9888512.2704000007],[712775.1819000002,9888524.7454000004],[712803.94139999989,9888541.2895],[712838.49830000009,9888556.3902000003],[712860.49149999954,9888570.0581],[712893.11799999978,9888589.0001999997],[712901.57650000043,9888593.5555000007],[712915.5876000002,9888591.1470999997],[712948.44159999955,9888586.3275000006],[712962.69629999995,9888587.2792000007],[712988.55119999964,9888594.4645000007],[713010.29430000018,9888593.7315999996],[713033.96630000044,9888586.2773000002],[713057.82479999959,9888588.9853000008],[713031.92050000001,9888619.2711999994],[713031.24870000035,9888636.8917999994],[713033.31030000001,9888662.6433000006],[713056.74619999994,9888688.1563000008],[713097.46009999979,9888707.7857000008],[713180.0800999999,9888735.2829999998],[713262.80649999995,9888751.7798999995],[713339.4299999997,9888774.3469999991],[713381.07270000037,9888785.9044000003],[713457.68420000002,9888788.0654000007],[713532.08910000045,9888813.9429000001],[713642.57440000027,9888832.6295999996],[713707.53699999955,9888850.2399000004],[713840.47200000007,9888870.3265000004],[713951.50210000016,9888871.1228999998],[714041.71920000017,9888880.5490000006],[714111.98579999991,9888889.9868999999],[714246.44400000013,9888903.6955999993],[714315.83660000004,9888901.9311999995],[714334.90919999965,9888883.8233000003],[714340.10199999996,9888864],[714357.45449999999,9888870.8837000001],[714380.87390000001,9888869.1464000009],[714421.6381000001,9888861.3665999994],[714497.9609000003,9888844.0866],[714539.59460000042,9888839.7533],[714583.83059999999,9888835.4184000008],[714610.71399999969,9888824.1997999996],[714621.97829999961,9888803.5110999998],[714609.8217000002,9888781.9746000003]]},"properties":{"OBJECTID":1,"Shape_Length":2181.638964489081}}]}